KUIPER-00167            
1 65780U 25217U   25334.58335648 -.00024667  00000+0 -15337-2 0  9999
2 65780  51.8807 126.2263 0011309 301.7155 350.3234 15.08826311  4273
KUIPER-00168            
1 65781U 25217V   25334.59726991  .00034348  00000+0  88709-3 0  9995
2 65781  51.8708 122.6218 0001910 229.8127 130.2694 15.38811778 10186
KUIPER-00169            
1 65782U 25217W   25333.84739198  .00048645  00000+0  12673-2 0  9997
2 65782  51.8697 126.5879 0003080 282.8866  77.1776 15.38382509 10061
KUIPER-00170            
1 65783U 25217X   25334.58335648 -.00865096  00000+0 -33785-1 0  9997
2 65783  51.8699 123.8499 0007117 314.1120 120.3221 15.28082548  5642
KUIPER-00171            
1 65784U 25217Y   25334.62683607  .00114550  00000+0  10377-2 0  9997
2 65784  51.8571 117.5951 0009147 319.6570  40.3750 15.67144961 10251
KUIPER-00172            
1 65785U 25217Z   25334.41522666  .00049230  00000+0  12737-2 0  9996
2 65785  51.8689 123.6471 0004088 286.1346  73.9191 15.38587001 10159
KUIPER-00173            
1 65786U 25217AA  25334.62108573  .00039803  00000+0  10908-2 0  9990
2 65786  51.8693 122.7688 0004474 298.5657  61.4878 15.36902065 10182
KUIPER-00174            
1 65787U 25217AB  25334.14989930  .00078958  00000+0  20619-2 0  9996
2 65787  51.8700 124.8704 0002624 224.2105 135.8673 15.38091958 10117
